INTELSAT 10 (IS-10)     
1 26766U 01019A   26026.41743813 -.00000195  00000+0  00000+0 0  9999
2 26766   8.7348  60.6959 0008459 245.8578 275.7517  0.99074976 44170
INTELSAT 902 (IS-902)   
1 26900U 01039A   26026.41821814 -.00000275  00000+0  00000+0 0  9998
2 26900   5.7595  73.5326 0004465 238.6004 274.0129  1.00270480 89271
INTELSAT 904 (IS-904)   
1 27380U 02007A   26026.42185816 -.00000218  00000+0  00000+0 0  9990
2 27380   6.5646  70.9003 0003747 281.3629 253.8079  1.00270539 50343
DIRECTV 5 (TEMPO 1)     
1 27426U 02023A   26026.28169631 -.00000048  00000+0  00000+0 0  9991
2 27426   4.5140  77.1067 0003482 236.8528 162.8950  1.00271447 86704
INTELSAT 905 (IS-905)   
1 27438U 02027A   26025.21086308  .00000104  00000+0  00000+0 0  9991
2 27438   6.3928  71.5379 0003056 238.5705 113.1260  1.00273411 49927
GALAXY 3C (G-3C)        
1 27445U 02030A   26026.05265609 -.00000142  00000+0  00000+0 0  9992
2 27445   3.3714  79.9852 0000819  90.4546 239.0098  1.00270896 45067
INTELSAT 906 (IS-906)   
1 27513U 02041A   26026.18914118  .00000022  00000+0  00000+0 0  9996
2 27513   5.4423  74.6914 0004999 217.3084 325.7039  1.00272258 85600
GALAXY 13 (HORIZONS-1)  
1 27954U 03044A   26026.46969840  .00000144  00000+0  00000+0 0  9997
2 27954   1.0522  85.8905 0002165 226.1191 192.8219  1.00274125 45159
INTELSAT 10-02          
1 28358U 04022A   26026.35659778  .00000001  00000+0  00000+0 0  9999
2 28358   0.0173  77.3438 0001205 239.8517 295.8606  1.00270447 79135
XM-3 (RHYTHM)           
1 28626U 05008A   26026.51985156  .00000028  00000+0  00000+0 0  9991
2 28626   0.2887  83.5447 0003800 279.2772 211.7338  0.98949610 41195
DIRECTV 8               
1 28659U 05019A   26025.97656233  .00000015  00000+0  00000+0 0  9995
2 28659   0.0198  85.6618 0003181 226.6481  45.4682  1.00271090 75647
GALAXY 28 (G-28)        
1 28702U 05022A   26026.41917147 -.00000240  00000+0  00000+0 0  9993
2 28702   2.9339  80.7463 0002170 208.6309 302.1499  1.00588261 50557
GALAXY 16 (G-16)        
1 29236U 06023A   26026.51985088 -.00000115  00000+0  00000+0 0  9999
2 29236   0.0280 159.4642 0002792 148.1859 266.2841  1.00271126 71558
DIRECTV 9S              
1 29494U 06043A   26026.45432256 -.00000103  00000+0  00000+0 0  9991
2 29494   2.0538  82.6976 0003132 225.1131 240.2707  1.00270880 49966
GALAXY 17 (G-17)        
1 31307U 07016B   26025.55534289 -.00000194  00000+0  00000+0 0  9997
2 31307   2.6089  81.7562 0005001 201.4934 316.5313  1.00270328 68378
DIRECTV 10              
1 31862U 07032A   26026.51503227 -.00000091  00000+0  00000+0 0  9992
2 31862   0.0387 116.5805 0000670 148.6912 303.1471  1.00270308 44176
INTELSAT 11 (IS-11)     
1 32253U 07044B   26026.14876995  .00000008  00000+0  00000+0 0  9991
2 32253   3.1940  80.4507 0007589 186.7378 302.1525  0.99049341 67041
HORIZONS-2              
1 32388U 07063B   26026.46795414 -.00000243  00000+0  00000+0 0  9994
2 32388   2.2355  82.4420 0004035 213.7819 284.2049  1.00271009 66399
DIRECTV 11              
1 32729U 08013A   26026.36989147 -.00000113  00000+0  00000+0 0  9992
2 32729   0.0081 264.2553 0000210  63.7089 191.6536  1.00272048 44178
GALAXY 18 (G-18)        
1 32951U 08024A   26026.52614185  .00000037  00000+0  00000+0 0  9990
2 32951   0.0188  71.5990 0003192 240.1318 240.4696  1.00271913 44434
INTELSAT 25 (IS-25)     
1 33153U 08034A   26026.42185816 -.00000214  00000+0  00000+0 0  9997
2 33153   2.3410  82.1200 0004767 214.7239 309.2141  1.00269082 64279
GALAXY 19 (G-19)        
1 33376U 08045A   26026.51627213 -.00000127  00000+0  00000+0 0  9991
2 33376   0.0619 257.4691 0002987  46.6555 270.5312  1.00272885 63485
FM-5                    
1 35493U 09034A   26026.52147106 -.00000188  00000+0  00000+0 0  9998
2 35493   0.0401 253.4335 0001046 313.2410  20.7060  1.00273514 45222
INTELSAT 14 (IS-14)     
1 36097U 09064A   26026.41917147 -.00000261  00000+0  00000+0 0  9992
2 36097   0.0203  73.7737 0002565 228.8506 288.9875  1.00271503 59184
INTELSAT 15 (IS-15)     
1 36106U 09067A   26026.44499829 -.00000172  00000+0  00000+0 0  9992
2 36106   0.0174  68.7337 0002639 254.7163  47.6191  1.00270695 39800
DIRECTV 12              
1 36131U 09075A   26026.36989147 -.00000091  00000+0  00000+0 0  9997
2 36131   0.0011 212.9999 0000365 140.5304 162.5708  1.00270960 45137
INTELSAT 16 (IS-16)     
1 36397U 10006A   26026.49170270 -.00000232  00000+0  00000+0 0  9997
2 36397   0.0165  21.2645 0002188 280.0918 285.2275  1.00270323 58236
XM-5                    
1 37185U 10053A   26026.33397764 -.00000010  00000+0  00000+0 0  9991
2 37185   0.0658 263.9832 0002823 262.2196 324.4478  1.00271081 56060
INTELSAT 17 (IS-17)     
1 37238U 10065B   26026.44118493  .00000011  00000+0  00000+0 0  9995
2 37238   0.0298 210.4142 0002384 100.0195  40.1116  1.00271643 51824
INTELSAT 28 (IS-28)     
1 37392U 11016A   26026.42177148 -.00000214  00000+0  00000+0 0  9999
2 37392   1.4383  84.5232 0004159 216.7339 304.5688  1.00269896 51864
INTELSAT 18 (IS-18)     
1 37834U 11056A   26026.46371838  .00000065  00000+0  00000+0 0  9993
2 37834   0.0165 311.8928 0001980 352.5957 168.1937  1.00269222 52393
INTELSAT 22 (IS-22)     
1 38098U 12011A   26026.44239826 -.00000046  00000+0  00000+0 0  9996
2 38098   0.0127  47.8205 0001636 265.7458  43.5141  1.00272325  5767
INTELSAT 19 (IS-19)     
1 38356U 12030A   26025.56711400 -.00000043  00000+0  00000+0 0  9996
2 38356   0.0171  76.0895 0003202 235.1093 183.8241  1.00271373 49027
INTELSAT 20 (IS-20)     
1 38740U 12043A   26026.52353090 -.00000012  00000+0  00000+0 0  9997
2 38740   0.0212  91.8304 0001624  62.3672 228.5574  1.00272122 49321
INTELSAT 21 (IS-21)     
1 38749U 12045A   26026.36364145 -.00000272  00000+0  00000+0 0  9991
2 38749   0.0157  75.8716 0001926 230.4202 252.2639  1.00270805 49107
INTELSAT 23 (IS-23)     
1 38867U 12057A   26025.98964906 -.00000271  00000+0  00000+0 0  9992
2 38867   0.0389 245.4663 0001774  50.1750 132.8910  1.00272009 48525
FM-6                    
1 39360U 13058A   26026.33371764 -.00000004  00000+0  00000+0 0  9991
2 39360   0.0263  94.6602 0002880  81.5739 313.3296  1.00270845 44655
INTELSAT 30 (IS-30)     
1 40271U 14062A   26025.83853722 -.00000137  00000+0  00000+0 0  9990
2 40271   0.0119  53.3126 0001193  57.8543 220.7785  1.00271918  5367
DIRECTV 14              
1 40333U 14078B   26026.51985134 -.00000114  00000+0  00000+0 0  9990
2 40333   0.0176  67.5967 0000541 146.1191 359.9924  1.00273821 40629
DIRECTV 15              
1 40663U 15026A   26026.51503227 -.00000090  00000+0  00000+0 0  9992
2 40663   0.0138  80.5322 0000745 110.2704  17.5178  1.00270026 39047
SKY MEXICO-1            
1 40664U 15026B   26026.49524370 -.00000222  00000+0  00000+0 0  9999
2 40664   0.0268 285.6953 0002095  21.0809 278.5301  1.00269699 39035
INTELSAT 34 (IS-34)     
1 40874U 15039A   26026.06045612 -.00000272  00000+0  00000+0 0  9991
2 40874   0.0259 297.1561 0000801 269.9731 244.4774  1.00271392 38208
INTELSAT 31 (IS-31)     
1 41581U 16035A   26026.38931691 -.00000138  00000+0  00000+0 0  9991
2 41581   0.0132 282.6817 0002257 297.5761 310.4998  1.00269711 35261
INTELSAT 36 (IS-36)     
1 41747U 16053A   26025.87089662 -.00000011  00000+0  00000+0 0  9990
2 41747   0.0084  34.1155 0001507 271.4508 201.6189  1.00273760 34523
INTELSAT 32E (IS-32E)   
1 41945U 17007B   26025.49628273 -.00000255  00000+0  00000+0 0  9995
2 41945   0.0148  82.6131 0000205 262.9802 274.6806  1.00268652 32799
INTELSAT 35E (IS-35E)   
1 42818U 17041A   26026.42125147 -.00000226  00000+0  00000+0 0  9997
2 42818   0.0095  75.7556 0002210 230.3536 296.7519  1.00271627 31392
INTELSAT 37E (IS-37E)   
1 42950U 17059A   26026.42454484 -.00000129  00000+0  00000+0 0  9994
2 42950   0.0058 244.3709 0002886  45.4157 330.7590  1.00270971 30641
AZERSPACE 2 (IS-38)     
1 43632U 18074A   26026.29402411  .00000149  00000+0  00000+0 0  9999
2 43632   0.0112  53.7441 0001514 246.1625 336.6279  1.00270101 27024
HORIZONS-3E             
1 43633U 18074B   26026.17624344 -.00000018  00000+0  00000+0 0  9994
2 43633   0.0423 241.5341 0000403  74.5873  41.7669  1.00269800 26918
AT&T T-16               
1 44333U 19034A   26026.52248598 -.00000103  00000+0  00000+0 0  9996
2 44333   0.0202  83.7430 0000720  87.8550  41.4308  1.00268658 24215
INTELSAT 39 (IS-39)     
1 44476U 19049B   26026.44031826  .00000046  00000+0  00000+0 0  9990
2 44476   0.0194  72.7003 0000872  87.2412 186.2270  1.00270821 23700
GALAXY 30 (G-30)        
1 46114U 20056C   26026.52614185  .00000049  00000+0  00000+0 0  9998
2 46114   0.0182  73.5500 0002240 236.0575 240.5955  1.00271420 19877
GALAXY 33 (G-33)        
1 54026U 22128A   26026.52614185  .00000091  00000+0  00000+0 0  9998
2 54026   0.0140  64.1640 0001941 240.8317 237.2171  1.00272073 12328
GALAXY 34 (G-34)        
1 54027U 22128B   26026.52540914  .00000071  00000+0  00000+0 0  9995
2 54027   0.0106  31.0661 0001409 275.3984 239.4692  1.00273461 12491
GALAXY 31 (G-31)        
1 54243U 22153A   26026.52058697  .00000025  00000+0  00000+0 0  9994
2 54243   0.0125 130.3325 0001658 180.8439 241.0287  1.00271370  5716
GALAXY 32 (G-32)        
1 54244U 22153B   26026.46364129 -.00000162  00000+0  00000+0 0  9991
2 54244   0.0113  32.8245 0002691 296.7736 232.0539  1.00271014 11729
GALAXY 35 (G-35)        
1 54741U 22170A   26026.50947482 -.00000150  00000+0  00000+0 0  9993
2 54741   0.0200 175.9838 0002127 126.4431 273.6560  1.00271943 11478
GALAXY 36 (G-36)        
1 54742U 22170B   26026.51305197 -.00000173  00000+0  00000+0 0  9991
2 54742   0.0346 235.1510 0001102 132.9281 213.4130  1.00270877 11350
GALAXY 37 (G-37)        
1 57493U 23112A   26026.32219242  .00000061  00000+0  00000+0 0  9993
2 57493   0.0267 287.9406 0002297  23.3337 163.3073  1.00272590  9123
